{
    "links": {
        "self": "http://www.neowsapp.com/rest/v1/neo/3545400?api_key=iIulBulltgU6a56xZRHN4H3l9WmuAYTsLGpBGhQ2"
    },
    "id": "3545400",
    "neo_reference_id": "3545400",
    "name": "(2010 RA)",
    "designation": "2010 RA",
    "nasa_jpl_url": "http://ssd.jpl.nasa.gov/sbdb.cgi?sstr=3545400",
    "absolute_magnitude_h": 22.9,
    "estimated_diameter": {
        "kilometers": {
            "estimated_diameter_min": 0.0699125232,
            "estimated_diameter_max": 0.1563291544
        },
        "meters": {
            "estimated_diameter_min": 69.9125232246,
            "estimated_diameter_max": 156.3291544087
        },
        "miles": {
            "estimated_diameter_min": 0.0434416145,
            "estimated_diameter_max": 0.097138403
        },
        "feet": {
            "estimated_diameter_min": 229.3718026961,
            "estimated_diameter_max": 512.8909429502
        }
    },
    "is_potentially_hazardous_asteroid": false,
    "close_approach_data": [
        {
            "close_approach_date": "2004-10-27",
            "close_approach_date_full": "2004-Oct-27 22:47",
            "epoch_date_close_approach": 1098917220000,
            "relative_velocity": {
                "kilometers_per_second": "3.1414280105",
                "kilometers_per_hour": "11309.1408376798",
                "miles_per_hour": "7027.0603166127"
            },
            "miss_distance": {
                "astronomical": "1.9412074493",
                "lunar": "755.1296977777",
                "kilometers": "290400499.643412991",
                "miles": "180446503.0628856358"
            },
            "orbiting_body": "Juptr"
        },
        {
            "close_approach_date": "2010-09-19",
            "close_approach_date_full": "2010-Sep-19 02:41",
            "epoch_date_close_approach": 1284864060000,
            "relative_velocity": {
                "kilometers_per_second": "9.8345152217",
                "kilometers_per_hour": "35404.2547981686",
                "miles_per_hour": "21998.827099451"
            },
            "miss_distance": {
                "astronomical": "0.0834931987",
                "lunar": "32.4788542943",
                "kilometers": "12490404.685006769",
                "miles": "7761177.5806766522"
            },
            "orbiting_body": "Earth"
        },
        {
            "close_approach_date": "2111-11-08",
            "close_approach_date_full": "2111-Nov-08 05:46",
            "epoch_date_close_approach": 4476404760000,
            "relative_velocity": {
                "kilometers_per_second": "3.0015667798",
                "kilometers_per_hour": "10805.640407169",
                "miles_per_hour": "6714.2047296657"
            },
            "miss_distance": {
                "astronomical": "1.7872106699",
                "lunar": "695.2249505911",
                "kilometers": "267362909.458313113",
                "miles": "166131608.3123544394"
            },
            "orbiting_body": "Juptr"
        },
        {
            "close_approach_date": "2117-09-01",
            "close_approach_date_full": "2117-Sep-01 01:13",
            "epoch_date_close_approach": 4659901980000,
            "relative_velocity": {
                "kilometers_per_second": "16.1217183085",
                "kilometers_per_hour": "58038.1859105374",
                "miles_per_hour": "36062.6716842447"
            },
            "miss_distance": {
                "astronomical": "0.2769950089",
                "lunar": "107.7510584621",
                "kilometers": "41437863.332071043",
                "miles": "25748294.3102766734"
            },
            "orbiting_body": "Earth"
        }
    ],
    "orbital_data": {
        "orbit_id": "18",
        "orbit_determination_date": "2020-08-05 05:59:01",
        "first_observation_date": "2010-08-19",
        "last_observation_date": "2010-10-06",
        "data_arc_in_days": 48,
        "observations_used": 126,
        "orbit_uncertainty": "7",
        "minimum_orbit_intersection": ".075659",
        "jupiter_tisserand_invariant": "3.231",
        "epoch_osculation": "2459000.5",
        "eccentricity": ".5800667388228891",
        "semi_major_axis": "2.440212928000608",
        "inclination": "10.10908112330298",
        "ascending_node_longitude": "161.0653424039187",
        "orbital_period": "1392.323047953156",
        "perihelion_distance": "1.024726572821842",
        "perihelion_argument": "220.7863902898268",
        "aphelion_distance": "3.855699283179374",
        "perihelion_time": "2459666.141326940539",
        "mean_anomaly": "187.8913230296134",
        "mean_motion": ".2585606842673712",
        "equinox": "J2000",
        "orbit_class": {
            "orbit_class_type": "AMO",
            "orbit_class_description": "Near-Earth asteroid orbits similar to that of 1221 Amor",
            "orbit_class_range": "1.017 AU < q (perihelion) < 1.3 AU"
        }
    },
    "is_sentry_object": false
}